{
  "type": "FeatureCollection",
  "features": [
    {
      "type": "Feature",
      "properties": {
        "norad_id": 37919,
        "name": "FENGYUN 1C DEB",
        "group": "fengyun-1c-debris",
        "lat": -38.32894035185352,
        "lon": -58.30920676444856,
        "alt_km": 777.5687150317244,
        "timestamp": "2025-12-22T04:03:39.459074+00:00",
        "meta_object_name": "FENGYUN 1C DEB",
        "meta_object_id": "1999-025ENU",
        "meta_epoch": "2025-12-21T13:05:37.870080",
        "meta_mean_motion": 14.26784577,
        "meta_eccentricity": 0.0049416,
        "meta_inclination": 99.0587,
        "meta_ra_of_asc_node": 293.7998,
        "meta_arg_of_pericenter": 351.2429,
        "meta_mean_anomaly": 8.7883,
        "meta_ephemeris_type": 0,
        "meta_classification_type": "U",
        "meta_norad_cat_id": 37919,
        "meta_element_set_no": 999,
        "meta_rev_at_epoch": 65034,
        "meta_bstar": 0.0004279,
        "meta_mean_motion_dot": 1.003e-05,
        "meta_mean_motion_ddot": 0,
        "tle_line1": "1 37919U 99025ENU 25355.54557720  .00001003  00000+0  42790-3 0  9997",
        "tle_line2": "2 37919  99.0587 293.7998 0049416 351.2429   8.7883 14.26784577650349"
      },
      "geometry": {
        "type": "Point",
        "coordinates": [
          -58.30920676444856,
          -38.32894035185352
        ]
      }
    },
    {
      "type": "Feature",
      "properties": {
        "norad_id": 37921,
        "name": "FENGYUN 1C DEB",
        "group": "fengyun-1c-debris",
        "lat": -78.53658197770406,
        "lon": 165.47000822633615,
        "alt_km": 978.4778595692214,
        "timestamp": "2025-12-22T04:03:39.459085+00:00",
        "meta_object_name": "FENGYUN 1C DEB",
        "meta_object_id": "1999-025ENW",
        "meta_epoch": "2025-12-21T19:55:24.949632",
        "meta_mean_motion": 13.95159889,
        "meta_eccentricity": 0.008432,
        "meta_inclination": 99.021,
        "meta_ra_of_asc_node": 36.7092,
        "meta_arg_of_pericenter": 74.058,
        "meta_mean_anomaly": 286.9853,
        "meta_ephemeris_type": 0,
        "meta_classification_type": "U",
        "meta_norad_cat_id": 37921,
        "meta_element_set_no": 999,
        "meta_rev_at_epoch": 63274,
        "meta_bstar": 0.00031229,
        "meta_mean_motion_dot": 3.91e-06,
        "meta_mean_motion_ddot": 0,
        "tle_line1": "1 37921U 99025ENW 25355.83014988  .00000391  00000+0  31229-3 0  9990",
        "tle_line2": "2 37921  99.0210  36.7092 0084320  74.0580 286.9853 13.95159889632744"
      },
      "geometry": {
        "type": "Point",
        "coordinates": [
          165.47000822633615,
          -78.53658197770406
        ]
      }
    },
    {
      "type": "Feature",
      "properties": {
        "norad_id": 37925,
        "name": "FENGYUN 1C DEB",
        "group": "fengyun-1c-debris",
        "lat": 45.80108893535963,
        "lon": -142.91156315701596,
        "alt_km": 625.6900260209286,
        "timestamp": "2025-12-22T04:03:39.459095+00:00",
        "meta_object_name": "FENGYUN 1C DEB",
        "meta_object_id": "1999-025EPA",
        "meta_epoch": "2025-12-17T21:39:42.022944",
        "meta_mean_motion": 14.80410636,
        "meta_eccentricity": 0.00562547,
        "meta_inclination": 99.0862,
        "meta_ra_of_asc_node": 221.7351,
        "meta_arg_of_pericenter": 326.9012,
        "meta_mean_anomaly": 32.868,
        "meta_ephemeris_type": 0,
        "meta_classification_type": "U",
        "meta_norad_cat_id": 37925,
        "meta_element_set_no": 999,
        "meta_rev_at_epoch": 65759,
        "meta_bstar": 0.0012891872,
        "meta_mean_motion_dot": 0.00010061,
        "meta_mean_motion_ddot": 0,
        "tle_line1": "1 37925U 99025EPA 25351.90256971  .00010061  00000+0  12892-2 0  9997",
        "tle_line2": "2 37925  99.0862 221.7351 0056254 326.9012  32.8680 14.80410636657590"
      },
      "geometry": {
        "type": "Point",
        "coordinates": [
          -142.91156315701596,
          45.80108893535963
        ]
      }
    },
    {
      "type": "Feature",
      "properties": {
        "norad_id": 37926,
        "name": "FENGYUN 1C DEB",
        "group": "fengyun-1c-debris",
        "lat": 30.506423420871418,
        "lon": -115.53856639129738,
        "alt_km": 781.6703003502571,
        "timestamp": "2025-12-22T04:03:39.459105+00:00",
        "meta_object_name": "FENGYUN 1C DEB",
        "meta_object_id": "1999-025EPB",
        "meta_epoch": "2025-12-21T04:01:19.807104",
        "meta_mean_motion": 14.24271745,
        "meta_eccentricity": 0.00545245,
        "meta_inclination": 98.7231,
        "meta_ra_of_asc_node": 58.2772,
        "meta_arg_of_pericenter": 197.3961,
        "meta_mean_anomaly": 219.2792,
        "meta_ephemeris_type": 0,
        "meta_classification_type": "U",
        "meta_norad_cat_id": 37926,
        "meta_element_set_no": 999,
        "meta_rev_at_epoch": 74390,
        "meta_bstar": 0.0010202775,
        "meta_mean_motion_dot": 2.348e-05,
        "meta_mean_motion_ddot": 0,
        "tle_line1": "1 37926U 99025EPB 25355.16759036  .00002348  00000+0  10203-2 0  9993",
        "tle_line2": "2 37926  98.7231  58.2772 0054524 197.3961 219.2792 14.24271745743908"
      },
      "geometry": {
        "type": "Point",
        "coordinates": [
          -115.53856639129738,
          30.506423420871418
        ]
      }
    },
    {
      "type": "Feature",
      "properties": {
        "norad_id": 37927,
        "name": "FENGYUN 1C DEB",
        "group": "fengyun-1c-debris",
        "lat": -64.54885361448962,
        "lon": 159.63851870113533,
        "alt_km": 657.4102806970104,
        "timestamp": "2025-12-22T04:03:39.459115+00:00",
        "meta_object_name": "FENGYUN 1C DEB",
        "meta_object_id": "1999-025EPC",
        "meta_epoch": "2025-12-20T03:25:18.230304",
        "meta_mean_motion": 14.72067181,
        "meta_eccentricity": 0.00083592,
        "meta_inclination": 98.8071,
        "meta_ra_of_asc_node": 138.4338,
        "meta_arg_of_pericenter": 253.9424,
        "meta_mean_anomaly": 106.086,
        "meta_ephemeris_type": 0,
        "meta_classification_type": "U",
        "meta_norad_cat_id": 37927,
        "meta_element_set_no": 999,
        "meta_rev_at_epoch": 65225,
        "meta_bstar": 0.0024443804,
        "meta_mean_motion_dot": 0.00015349,
        "meta_mean_motion_ddot": 0,
        "tle_line1": "1 37927U 99025EPC 25354.14257211  .00015349  00000+0  24444-2 0  9996",
        "tle_line2": "2 37927  98.8071 138.4338 0008359 253.9424 106.0860 14.72067181652255"
      },
      "geometry": {
        "type": "Point",
        "coordinates": [
          159.63851870113533,
          -64.54885361448962
        ]
      }
    },
    {
      "type": "Feature",
      "properties": {
        "norad_id": 37928,
        "name": "FENGYUN 1C DEB",
        "group": "fengyun-1c-debris",
        "lat": 46.6913201504679,
        "lon": 60.68940505251692,
        "alt_km": 794.8994838738636,
        "timestamp": "2025-12-22T04:03:39.459125+00:00",
        "meta_object_name": "FENGYUN 1C DEB",
        "meta_object_id": "1999-025EPD",
        "meta_epoch": "2025-12-21T09:04:11.551008",
        "meta_mean_motion": 14.37132631,
        "meta_eccentricity": 0.0073076,
        "meta_inclination": 98.9148,
        "meta_ra_of_asc_node": 230.2847,
        "meta_arg_of_pericenter": 7.9876,
        "meta_mean_anomaly": 352.2454,
        "meta_ephemeris_type": 0,
        "meta_classification_type": "U",
        "meta_norad_cat_id": 37928,
        "meta_element_set_no": 999,
        "meta_rev_at_epoch": 81316,
        "meta_bstar": 0.00050775945,
        "meta_mean_motion_dot": 1.508e-05,
        "meta_mean_motion_ddot": 0,
        "tle_line1": "1 37928U 99025EPD 25355.37791147  .00001508  00000+0  50776-3 0  9994",
        "tle_line2": "2 37928  98.9148 230.2847 0073076   7.9876 352.2454 14.37132631813161"
      },
      "geometry": {
        "type": "Point",
        "coordinates": [
          60.68940505251692,
          46.6913201504679
        ]
      }
    },
    {
      "type": "Feature",
      "properties": {
        "norad_id": 38116,
        "name": "FENGYUN 1C DEB",
        "group": "fengyun-1c-debris",
        "lat": -10.936729248124049,
        "lon": -146.9861970101272,
        "alt_km": 822.1430372059385,
        "timestamp": "2025-12-22T04:03:39.459135+00:00",
        "meta_object_name": "FENGYUN 1C DEB",
        "meta_object_id": "1999-025EPM",
        "meta_epoch": "2025-12-21T08:35:05.821728",
        "meta_mean_motion": 14.17033054,
        "meta_eccentricity": 0.00724673,
        "meta_inclination": 98.7117,
        "meta_ra_of_asc_node": 33.9167,
        "meta_arg_of_pericenter": 122.4097,
        "meta_mean_anomaly": 250.3573,
        "meta_ephemeris_type": 0,
        "meta_classification_type": "U",
        "meta_norad_cat_id": 38116,
        "meta_element_set_no": 999,
        "meta_rev_at_epoch": 64607,
        "meta_bstar": 0.00039691226,
        "meta_mean_motion_dot": 7.76e-06,
        "meta_mean_motion_ddot": 0,
        "tle_line1": "1 38116U 99025EPM 25355.35770627  .00000776  00000+0  39691-3 0  9991",
        "tle_line2": "2 38116  98.7117  33.9167 0072467 122.4097 250.3573 14.17033054646070"
      },
      "geometry": {
        "type": "Point",
        "coordinates": [
          -146.9861970101272,
          -10.936729248124049
        ]
      }
    }
  ]
}